#cP2022  3 23  6  0  0.00000000     576 d+D   IGb14 EXT AIUB
## 2202 280800.00000000   300.00000000 59661 0.2500000000000
+   76   G01G02G03G04G05G06G07G08G09G10G11G12G13G14G15G16G17
+        G18G19G20G21G22G23G24G25G26G27G28G29G30G31G32R01R02
+        R03R04R05R07R08R09R12R13R14R15R17R18R19R20R21R22R24
+        E01E02E03E04E05E07E08E10E11E12E13E14E15E18E19E21E24
+        E25E26E27E30E31E33E34E36  0  0  0  0  0  0  0  0  0
++         6  7  7  8  7  6  6  6  5  6  8  7  7  7  7  7  8
++         8  7  7  7  7  7  6  5  6  5  7  7  6  7  6  8  6
++         7  7  7  7  7  7  7  8  7  7  8  7  8  9  8  9  7
++         6  6  5  5  6  6  6  8  7  6  6  6  7  7  6  6  6
++         7  6  6  6  6  6  6  7  0  0  0  0  0  0  0  0  0
%c M  cc GPS ccc cccc cccc cccc cccc ccccc ccccc ccccc ccccc
%c cc cc ccc ccc cccc cccc cccc cccc ccccc ccccc ccccc ccccc
%f  1.2500000  1.025000000  0.00000000000  0.000000000000000
%f  0.0000000  0.000000000  0.00000000000  0.000000000000000
%i    0    0    0    0      0      0      0      0         0
%i    0    0    0    0      0      0      0      0         0
/* Center for Orbit Determination in Europe (CODE)          
/* Ultra-rapid GRE orbits starting year-day 22082 06 hour   
/* Observed/predicted: 25/23 hours (data used up to 083G)   
/* PCV:IGS14      OL/AL:FES2014b NONE     YN ORB:CoN CLK:BRD
*  2022  3 25  1  5  0.00000000
PG01  18528.688062  13728.940525 -13773.053523    400.936623               P   P
PG02   3583.950967 -15041.115852  22260.455834   -652.606153               P   P
PG03  12992.577065  21465.082302   8779.098360   -178.194656               P   P
PG04   9490.549510  11975.971261  21727.297915   -181.213783               P   P
PG05  -4494.549891 -25317.864662   6167.197705    -75.867481               P   P
PG06  19432.468025  -6973.187296  16822.318212    242.777487               P   P
PG07  26213.513602   5666.494069   -471.289389    317.626735               P   P
PG08    629.572575  18811.996585 -18627.807329    -61.167028               P   P
PG09  17686.217259   1108.328782  19726.025310   -347.885642               P   P
PG10 -13787.383984   5712.994760 -21814.287659   -357.238354               P   P
PG11   4689.002783 -14442.678373  21788.565821    -56.153172               P   P
PG12  -9652.088718 -24111.609117   5602.684777   -189.973389               P   P
PG13   8917.607058 -20378.088677 -14539.955421    282.504047               P   P
PG14  14691.616318  -4594.936478 -21648.523460    -96.963924               P   P
PG15  -3888.984806 -18677.360229 -18764.044226    -74.209935               P   P
PG16  -1448.614696  24369.642171   9597.031436   -484.430020               P   P
PG17  21535.668801 -12802.165922  -8467.273906    591.621263               P   P
PG18 -25987.820838  -5672.861700   -965.019726    212.021564               P   P
PG19  20739.319782 -16321.211099  -2102.381230    135.423915               P   P
PG20      0.000000      0.000000      0.000000 999999.999999               P   P
PG21   9534.513104  14988.787667 -19286.813938    159.771675               P   P
PG22 -18699.024818  18684.652148   1535.936331    232.695492               P   P
PG23 -16604.753630  -6485.763369 -19729.822668     -9.585356               P   P
PG24 -15339.231900 -14573.180405 -16593.624326    264.724476               P   P
PG25 -16072.690479 -14123.566354  15625.499486    302.866409               P   P
PG26  -8238.765009  16883.272693  18572.073422    193.429355               P   P
PG27 -10056.191721  21908.903888 -10888.310817    164.550487               P   P
PG28  10712.511842 -13926.254872 -19474.089136    374.843804               P   P
PG29 -16236.695980  -3713.596941  20654.156855   -495.268298               P   P
PG30  25077.688867   -746.387650  -9018.299482   -520.450646               P   P
PG31 -17917.079933   8488.589854  17765.638008   -170.425616               P   P
PG32 -20253.752419  15762.678596  -6298.675593    -91.414425               P   P
PR01   6974.792934 -24523.310762    535.838753      7.389776               P   P
PR02  -2998.401837 -18320.230252 -17478.273242    513.535241               P   P
PR03 -10918.141929  -1503.742921 -22952.840667     53.743151               P   P
PR04 -12430.314740  15892.082126 -15569.067801    133.456782               P   P
PR05  -7260.021771  24437.045971    444.635808     89.959076               P   P
PR07  11181.364694    637.248649  22963.966393     33.026561               P   P
PR08  12489.341294 -15979.391368  15548.201385    -64.214842               P   P
PR09  15925.194048  19437.577414   4615.190387     46.124764               P   P
PR12  -2940.297590 -16413.620197 -19291.597606     17.566606               P   P
PR13 -15246.109287 -19604.816665  -5850.115398    -19.901884               P   P
PR14 -19193.013607 -11183.666316  12533.229811     75.758887               P   P
PR15 -11597.701521   3453.177509  22468.989888     97.302268               P   P
PR17 -23129.144135    360.625144  10792.664601    512.198494               P   P
PR18 -23431.120522   8019.411031  -5967.967636    111.375600               P   P
PR19 -12839.865011  11132.983677 -19020.853871   -182.810253               P   P
PR20   8902.404493   8362.490344 -22394.377319    -67.366954               P   P
PR21  23656.225205  -1022.921483  -9464.605966   -287.946670               P   P
PR22  23225.413844  -8195.193653   6829.602346   -172.675178               P   P
PR24  -9855.832188  -8365.908251  22006.264515     85.941181               P   P
PE01   8708.462463  27790.556187   5257.323580   -603.231885               P   P
PE02  -8820.222221 -27802.239595  -5115.875542    288.395644               P   P
PE03    491.730464 -23175.520477 -18399.399800   -540.855753               P   P
PE04  15050.707615   8213.204130  24138.230633   -991.780840               P   P
PE05  16058.719546 -24805.799771  -1722.082255   -197.231005               P   P
PE07 -22045.662098  11993.594584 -15691.310164   -651.685298               P   P
PE08 -15192.024357  -7707.467382 -24202.310324   -500.813601               P   P
PE10  29290.245170   3755.047860  -2079.415547   -502.499262               P   P
PE11  28317.514870  -2868.551993   8164.293577   4143.225907               P   P
PE12  25576.617145   9648.675710 -11386.142417   4696.864119               P   P
PE13 -28507.193892   2489.366399  -7540.203577    427.542263               P   P
PE14  12327.496264 -19600.860785   6711.311923  -1789.977744               P   P
PE15 -25485.524696  -9631.516523  11563.261177    755.782538               P   P
PE18  -7839.739154  26400.552013 -16839.948614  -1644.776511               P   P
PE19  -2739.130884  24172.454860  16869.469172  -1874.975908               P   P
PE21  -5250.738462  21180.983386  19989.666298   -724.484535               P   P
PE24  17571.844001   -653.321626 -23824.515492   -523.698302               P   P
PE25   5440.769006 -21006.140268 -20137.027266   -567.980229               P   P
PE26 -13795.069223  13532.164539 -22415.310634   -951.203229               P   P
PE27 -17087.259190   2031.528684  24084.172686   -260.742169               P   P
PE30 -18463.718799 -19078.330515  13094.642284   -375.634853               P   P
PE31  18760.207874  18129.734442 -13973.162397   -494.030786               P   P
PE33   7476.159401  16010.159220 -23745.235869   -458.246544               P   P
PE34  -7720.909539 -15980.089605  23684.882370   -508.468855               P   P
PE36  14778.953774 -13061.865117  22080.289296   -349.974290               P   P
EOF
